{"type": "FeatureCollection", "features": [ {"type": "Feature", "properties": {"norad_id": 30726, "name": "FENGYUN 1C DEB", "group": "fengyun-1c-debris", "lat": 63.367104546539416, "lon": -171.9964367206795, "alt_km": 874.3099569157985, "timestamp": "2025-12-13T05:42:57.837744+00:00", "meta": {"OBJECT_NAME": "FENGYUN 1C DEB", "OBJECT_ID": "1999-025ASL", "EPOCH": "2025-12-11T11:20:51.108000", "MEAN_MOTION": 14.09293315, "ECCENTRICITY": 0.00782443, "INCLINATION": 99.2682, "RA_OF_ASC_NODE": 347.1852, "ARG_OF_PERICENTER": 229.739, "MEAN_ANOMALY": 294.5561, "EPHEMERIS_TYPE": 0, "CLASSIFICATION_TYPE": "U", "NORAD_CAT_ID": 30726, "ELEMENT_SET_NO": 999, "REV_AT_EPOCH": 95965, "BSTAR": 0.0020072678, "MEAN_MOTION_DOT": 3.549e-05, "MEAN_MOTION_DDOT": 0}, "tle": {"line1": "1 30726U 99025ASL 25345.47281375  .00003549  00000+0  20073-2 0  9993", "line2": "2 30726  99.2682 347.1852 0078244 229.7390 294.5561 14.09293315959656"}}, "geometry": {"type": "Point", "coordinates": [-171.9964367206795, 63.367104546539416]}}, {"type": "Feature", "properties": {"norad_id": 30728, "name": "FENGYUN 1C DEB", "group": "fengyun-1c-debris", "lat": 48.18615204751541, "lon": -15.749953336164902, "alt_km": 748.0519703095788, "timestamp": "2025-12-13T05:42:57.837755+00:00", "meta": {"OBJECT_NAME": "FENGYUN 1C DEB", "OBJECT_ID": "1999-025ASN", "EPOCH": "2025-12-11T23:07:26.700672", "MEAN_MOTION": 14.23473745, "ECCENTRICITY": 0.009955, "INCLINATION": 98.5295, "RA_OF_ASC_NODE": 352.6722, "ARG_OF_PERICENTER": 84.2275, "MEAN_ANOMALY": 277.0243, "EPHEMERIS_TYPE": 0, "CLASSIFICATION_TYPE": "U", "NORAD_CAT_ID": 30728, "ELEMENT_SET_NO": 999, "REV_AT_EPOCH": 97678, "BSTAR": 0.0001154, "MEAN_MOTION_DOT": 2.34e-06, "MEAN_MOTION_DDOT": 0}, "tle": {"line1": "1 30728U 99025ASN 25345.96350348  .00000234  00000+0  11540-3 0  9994", "line2": "2 30728  98.5295 352.6722 0099550  84.2275 277.0243 14.23473745976785"}}, "geometry": {"type": "Point", "coordinates": [-15.749953336164902, 48.18615204751541]}}, {"type": "Feature", "properties": {"norad_id": 30730, "name": "FENGYUN 1C DEB", "group": "fengyun-1c-debris", "lat": -9.370512185399901, "lon": 27.785615800227212, "alt_km": 780.1181738396799, "timestamp": "2025-12-13T05:42:57.837766+00:00", "meta": {"OBJECT_NAME": "FENGYUN 1C DEB", "OBJECT_ID": "1999-025ASQ", "EPOCH": "2025-12-11T14:02:21.807168", "MEAN_MOTION": 14.25466729, "ECCENTRICITY": 0.00784586, "INCLINATION": 98.6188, "RA_OF_ASC_NODE": 24.7268, "ARG_OF_PERICENTER": 52.6842, "MEAN_ANOMALY": 99.8256, "EPHEMERIS_TYPE": 0, "CLASSIFICATION_TYPE": "U", "NORAD_CAT_ID": 30730, "ELEMENT_SET_NO": 999, "REV_AT_EPOCH": 96989, "BSTAR": 0.0014510887, "MEAN_MOTION_DOT": 3.498e-05, "MEAN_MOTION_DDOT": 0}, "tle": {"line1": "1 30730U 99025ASQ 25345.58497462  .00003498  00000+0  14511-2 0  9999", "line2": "2 30730  98.6188  24.7268 0078458  52.6842  99.8256 14.25466729969899"}}, "geometry": {"type": "Point", "coordinates": [27.785615800227212, -9.370512185399901]}}, {"type": "Feature", "properties": {"norad_id": 30731, "name": "FENGYUN 1C DEB", "group": "fengyun-1c-debris", "lat": -8.147699909206754, "lon": -114.61466398281512, "alt_km": 750.6401687155985, "timestamp": "2025-12-13T05:42:57.837776+00:00", "meta": {"OBJECT_NAME": "FENGYUN 1C DEB", "OBJECT_ID": "1999-025ASR", "EPOCH": "2025-12-11T21:30:03.803040", "MEAN_MOTION": 14.41749213, "ECCENTRICITY": 0.0014817, "INCLINATION": 98.8592, "RA_OF_ASC_NODE": 65.273, "ARG_OF_PERICENTER": 248.1015, "MEAN_ANOMALY": 177.1853, "EPHEMERIS_TYPE": 0, "CLASSIFICATION_TYPE": "U", "NORAD_CAT_ID": 30731, "ELEMENT_SET_NO": 999, "REV_AT_EPOCH": 97344, "BSTAR": 0.0035353, "MEAN_MOTION_DOT": 0.00011525, "MEAN_MOTION_DDOT": 0}, "tle": {"line1": "1 30731U 99025ASR 25345.89587735  .00011525  00000+0  35353-2 0  9994", "line2": "2 30731  98.8592  65.2730 0014817 248.1015 177.1853 14.41749213973447"}}, "geometry": {"type": "Point", "coordinates": [-114.61466398281512, -8.147699909206754]}}, {"type": "Feature", "properties": {"norad_id": 30732, "name": "FENGYUN 1C DEB", "group": "fengyun-1c-debris", "lat": -49.15926727052264, "lon": 177.0071011584031, "alt_km": 803.753817857475, "timestamp": "2025-12-13T05:42:57.837787+00:00", "meta": {"OBJECT_NAME": "FENGYUN 1C DEB", "OBJECT_ID": "1999-025ASS", "EPOCH": "2025-12-12T01:20:35.185056", "MEAN_MOTION": 14.03900806, "ECCENTRICITY": 0.01238249, "INCLINATION": 98.8046, "RA_OF_ASC_NODE": 6.1905, "ARG_OF_PERICENTER": 210.9611, "MEAN_ANOMALY": 166.7617, "EPHEMERIS_TYPE": 0, "CLASSIFICATION_TYPE": "U", "NORAD_CAT_ID": 30732, "ELEMENT_SET_NO": 999, "REV_AT_EPOCH": 96182, "BSTAR": 0.00063486289, "MEAN_MOTION_DOT": 1.029e-05, "MEAN_MOTION_DDOT": 0}, "tle": {"line1": "1 30732U 99025ASS 25346.05596279  .00001029  00000+0  63486-3 0  9994", "line2": "2 30732  98.8046   6.1905 0123824 210.9611 166.7617 14.03900806961824"}}, "geometry": {"type": "Point", "coordinates": [177.0071011584031, -49.15926727052264]}}, {"type": "Feature", "properties": {"norad_id": 30735, "name": "FENGYUN 1C DEB", "group": "fengyun-1c-debris", "lat": 44.69711570181775, "lon": -112.92170477815404, "alt_km": 821.7075086198938, "timestamp": "2025-12-13T05:42:57.837798+00:00", "meta": {"OBJECT_NAME": "FENGYUN 1C DEB", "OBJECT_ID": "1999-025ASV", "EPOCH": "2025-12-12T03:55:20.828928", "MEAN_MOTION": 14.23959181, "ECCENTRICITY": 0.00594725, "INCLINATION": 98.763, "RA_OF_ASC_NODE": 57.2283, "ARG_OF_PERICENTER": 246.5442, "MEAN_ANOMALY": 142.3816, "EPHEMERIS_TYPE": 0, "CLASSIFICATION_TYPE": "U", "NORAD_CAT_ID": 30735, "ELEMENT_SET_NO": 999, "REV_AT_EPOCH": 96740, "BSTAR": 0.0025666711, "MEAN_MOTION_DOT": 5.956e-05, "MEAN_MOTION_DDOT": 0}, "tle": {"line1": "1 30735U 99025ASV 25346.16343552  .00005956  00000+0  25667-2 0  9994", "line2": "2 30735  98.7630  57.2283 0059472 246.5442 142.3816 14.23959181967408"}}, "geometry": {"type": "Point", "coordinates": [-112.92170477815404, 44.69711570181775]}}, {"type": "Feature", "properties": {"norad_id": 30736, "name": "FENGYUN 1C DEB", "group": "fengyun-1c-debris", "lat": -80.89970975768703, "lon": 99.91017406292272, "alt_km": 1195.052334538891, "timestamp": "2025-12-13T05:42:57.837808+00:00", "meta": {"OBJECT_NAME": "FENGYUN 1C DEB", "OBJECT_ID": "1999-025ASW", "EPOCH": "2025-12-06T16:01:27.387840", "MEAN_MOTION": 13.61611053, "ECCENTRICITY": 0.02800041, "INCLINATION": 98.7811, "RA_OF_ASC_NODE": 19.2067, "ARG_OF_PERICENTER": 70.187, "MEAN_ANOMALY": 53.7062, "EPHEMERIS_TYPE": 0, "CLASSIFICATION_TYPE": "U", "NORAD_CAT_ID": 30736, "ELEMENT_SET_NO": 999, "REV_AT_EPOCH": 92770, "BSTAR": 0.0030781788, "MEAN_MOTION_DOT": 3.026e-05, "MEAN_MOTION_DDOT": 0}, "tle": {"line1": "1 30736U 99025ASW 25340.66767810  .00003026  00000+0  30782-2 0  9991", "line2": "2 30736  98.7811  19.2067 0280004  70.1870  53.7062 13.61611053927702"}}, "geometry": {"type": "Point", "coordinates": [99.91017406292272, -80.89970975768703]}}, {"type": "Feature", "properties": {"norad_id": 30737, "name": "FENGYUN 1C DEB", "group": "fengyun-1c-debris", "lat": 48.94484385660787, "lon": -40.442191719694264, "alt_km": 823.8376653595888, "timestamp": "2025-12-13T05:42:57.837819+00:00", "meta": {"OBJECT_NAME": "FENGYUN 1C DEB", "OBJECT_ID": "1999-025ASX", "EPOCH": "2025-12-11T21:27:06.905088", "MEAN_MOTION": 14.18252226, "ECCENTRICITY": 0.0024086, "INCLINATION": 98.5792, "RA_OF_ASC_NODE": 328.2394, "ARG_OF_PERICENTER": 133.9475, "MEAN_ANOMALY": 256.1554, "EPHEMERIS_TYPE": 0, "CLASSIFICATION_TYPE": "U", "NORAD_CAT_ID": 30737, "ELEMENT_SET_NO": 999, "REV_AT_EPOCH": 97021, "BSTAR": 0.00045457, "MEAN_MOTION_DOT": 8.96e-06, "MEAN_MOTION_DDOT": 0}, "tle": {"line1": "1 30737U 99025ASX 25345.89382992  .00000896  00000+0  45457-3 0  9994", "line2": "2 30737  98.5792 328.2394 0024086 133.9475 256.1554 14.18252226970215"}}, "geometry": {"type": "Point", "coordinates": [-40.442191719694264, 48.94484385660787]}}, {"type": "Feature", "properties": {"norad_id": 30739, "name": "FENGYUN 1C DEB", "group": "fengyun-1c-debris", "lat": 20.07705210396929, "lon": 157.56419774185505, "alt_km": 908.7523876948999, "timestamp": "2025-12-13T05:42:57.837830+00:00", "meta": {"OBJECT_NAME": "FENGYUN 1C DEB", "OBJECT_ID": "1999-025ASZ", "EPOCH": "2025-12-11T22:40:06.851136", "MEAN_MOTION": 14.14950914, "ECCENTRICITY": 0.01005312, "INCLINATION": 98.6921, "RA_OF_ASC_NODE": 333.0988, "ARG_OF_PERICENTER": 319.4637, "MEAN_ANOMALY": 94.6651, "EPHEMERIS_TYPE": 0, "CLASSIFICATION_TYPE": "U", "NORAD_CAT_ID": 30739, "ELEMENT_SET_NO": 999, "REV_AT_EPOCH": 96852, "BSTAR": 0.00069797903, "MEAN_MOTION_DOT": 1.373e-05, "MEAN_MOTION_DDOT": 0}, "tle": {"line1": "1 30739U 99025ASZ 25345.94452374  .00001373  00000+0  69798-3 0  9999", "line2": "2 30739  98.6921 333.0988 0100531 319.4637  94.6651 14.14950914968525"}}, "geometry": {"type": "Point", "coordinates": [157.56419774185505, 20.07705210396929]}}, {"type": "Feature", "properties": {"norad_id": 30740, "name": "FENGYUN 1C DEB", "group": "fengyun-1c-debris", "lat": -62.59897452100987, "lon": -104.80114404507974, "alt_km": 734.0677829668348, "timestamp": "2025-12-13T05:42:57.837840+00:00", "meta": {"OBJECT_NAME": "FENGYUN 1C DEB", "OBJECT_ID": "1999-025ATA", "EPOCH": "2025-12-11T06:17:18.566880", "MEAN_MOTION": 14.51876132, "ECCENTRICITY": 0.00321542, "INCLINATION": 98.6893, "RA_OF_ASC_NODE": 90.3143, "ARG_OF_PERICENTER": 140.0466, "MEAN_ANOMALY": 220.3103, "EPHEMERIS_TYPE": 0, "CLASSIFICATION_TYPE": "U", "NORAD_CAT_ID": 30740, "ELEMENT_SET_NO": 999, "REV_AT_EPOCH": 97626, "BSTAR": 0.0053662776, "MEAN_MOTION_DOT": 0.00021785, "MEAN_MOTION_DDOT": 0}, "tle": {"line1": "1 30740U 99025ATA 25345.26202045  .00021785  00000+0  53663-2 0  9996", "line2": "2 30740  98.6893  90.3143 0032154 140.0466 220.3103 14.51876132976264"}}, "geometry": {"type": "Point", "coordinates": [-104.80114404507974, -62.59897452100987]}}]}